{
  "type": "FeatureCollection",
  "features": [
    {
      "type": "Feature",
      "properties": {
        "norad_id": 43783,
        "name": "KAZSTSAT",
        "group": "resource",
        "lat": 81.34333906062439,
        "lon": -23.542696816648338,
        "alt_km": 565.8632542870828,
        "timestamp": "2025-12-27T03:58:43.835740+00:00",
        "meta_object_name": "KAZSTSAT",
        "meta_object_id": "2018-099AB",
        "meta_epoch": "2025-12-26T19:35:23.578368",
        "meta_mean_motion": 14.99375165,
        "meta_eccentricity": 0.0006431,
        "meta_inclination": 97.4509,
        "meta_ra_of_asc_node": 35.3935,
        "meta_arg_of_pericenter": 267.5057,
        "meta_mean_anomaly": 92.543,
        "meta_ephemeris_type": 0,
        "meta_classification_type": "U",
        "meta_norad_cat_id": 43783,
        "meta_element_set_no": 999,
        "meta_rev_at_epoch": 38547,
        "meta_bstar": 7.1468e-05,
        "meta_mean_motion_dot": 8.19e-06,
        "meta_mean_motion_ddot": 0,
        "tle_line1": "1 43783U 18099AB  25360.81624512  .00000819  00000+0  71468-4 0  9994",
        "tle_line2": "2 43783  97.4509  35.3935 0006431 267.5057  92.5430 14.99375165385475"
      },
      "geometry": {
        "type": "Point",
        "coordinates": [
          -23.542696816648338,
          81.34333906062439
        ]
      }
    },
    {
      "type": "Feature",
      "properties": {
        "norad_id": 43831,
        "name": "SAUDISAT 5A",
        "group": "resource",
        "lat": 65.07453184080244,
        "lon": 44.99030099453319,
        "alt_km": 475.8269029821631,
        "timestamp": "2025-12-27T03:58:43.835749+00:00",
        "meta_object_name": "SAUDISAT 5A",
        "meta_object_id": "2018-102A",
        "meta_epoch": "2025-12-26T21:23:42.176832",
        "meta_mean_motion": 15.25831309,
        "meta_eccentricity": 0.0010926,
        "meta_inclination": 97.333,
        "meta_ra_of_asc_node": 60.8089,
        "meta_arg_of_pericenter": 31.9362,
        "meta_mean_anomaly": 328.2536,
        "meta_ephemeris_type": 0,
        "meta_classification_type": "U",
        "meta_norad_cat_id": 43831,
        "meta_element_set_no": 999,
        "meta_rev_at_epoch": 38938,
        "meta_bstar": 0.00026016,
        "meta_mean_motion_dot": 6.595e-05,
        "meta_mean_motion_ddot": 0,
        "tle_line1": "1 43831U 18102A   25360.89146038  .00006595  00000+0  26016-3 0  9998",
        "tle_line2": "2 43831  97.3330  60.8089 0010926  31.9362 328.2536 15.25831309389386"
      },
      "geometry": {
        "type": "Point",
        "coordinates": [
          44.99030099453319,
          65.07453184080244
        ]
      }
    },
    {
      "type": "Feature",
      "properties": {
        "norad_id": 43833,
        "name": "SAUDISAT 5B",
        "group": "resource",
        "lat": 42.91663273617902,
        "lon": -109.27141102226086,
        "alt_km": 485.64858075220945,
        "timestamp": "2025-12-27T03:58:43.835759+00:00",
        "meta_object_name": "SAUDISAT 5B",
        "meta_object_id": "2018-102C",
        "meta_epoch": "2025-12-26T21:05:20.798880",
        "meta_mean_motion": 15.26175845,
        "meta_eccentricity": 0.0011687,
        "meta_inclination": 97.3425,
        "meta_ra_of_asc_node": 63.5605,
        "meta_arg_of_pericenter": 33.9518,
        "meta_mean_anomaly": 326.2466,
        "meta_ephemeris_type": 0,
        "meta_classification_type": "U",
        "meta_norad_cat_id": 43833,
        "meta_element_set_no": 999,
        "meta_rev_at_epoch": 38949,
        "meta_bstar": 0.00025398,
        "meta_mean_motion_dot": 6.505e-05,
        "meta_mean_motion_ddot": 0,
        "tle_line1": "1 43833U 18102C   25360.87871295  .00006505  00000+0  25398-3 0  9991",
        "tle_line2": "2 43833  97.3425  63.5605 0011687  33.9518 326.2466 15.26175845389496"
      },
      "geometry": {
        "type": "Point",
        "coordinates": [
          -109.27141102226086,
          42.91663273617902
        ]
      }
    },
    {
      "type": "Feature",
      "properties": {
        "norad_id": 44622,
        "name": "GAOFEN-10R",
        "group": "resource",
        "lat": -3.7951811076044164,
        "lon": -50.733302542765635,
        "alt_km": 619.095278164411,
        "timestamp": "2025-12-27T03:58:43.835768+00:00",
        "meta_object_name": "GAOFEN-10R",
        "meta_object_id": "2019-066A",
        "meta_epoch": "2025-12-26T19:53:54.837024",
        "meta_mean_motion": 14.82840306,
        "meta_eccentricity": 0.0006831,
        "meta_inclination": 98.0296,
        "meta_ra_of_asc_node": 308.3921,
        "meta_arg_of_pericenter": 0.0532,
        "meta_mean_anomaly": 0.0681,
        "meta_ephemeris_type": 0,
        "meta_classification_type": "U",
        "meta_norad_cat_id": 44622,
        "meta_element_set_no": 999,
        "meta_rev_at_epoch": 33683,
        "meta_bstar": 0.00023524,
        "meta_mean_motion_dot": 1.85e-05,
        "meta_mean_motion_ddot": 0,
        "tle_line1": "1 44622U 19066A   25360.82910691  .00001850  00000+0  23524-3 0  9994",
        "tle_line2": "2 44622  98.0296 308.3921 0006831   0.0532   0.0681 14.82840306336832"
      },
      "geometry": {
        "type": "Point",
        "coordinates": [
          -50.733302542765635,
          -3.7951811076044164
        ]
      }
    },
    {
      "type": "Feature",
      "properties": {
        "norad_id": 44804,
        "name": "CARTOSAT-3",
        "group": "resource",
        "lat": -65.24169161154623,
        "lon": -135.9326218547995,
        "alt_km": 523.4567505890791,
        "timestamp": "2025-12-27T03:58:43.835778+00:00",
        "meta_object_name": "CARTOSAT-3",
        "meta_object_id": "2019-081A",
        "meta_epoch": "2025-12-26T20:34:31.003392",
        "meta_mean_motion": 15.1926886,
        "meta_eccentricity": 0.001355,
        "meta_inclination": 97.4558,
        "meta_ra_of_asc_node": 60.2598,
        "meta_arg_of_pericenter": 38.3831,
        "meta_mean_anomaly": 321.8365,
        "meta_ephemeris_type": 0,
        "meta_classification_type": "U",
        "meta_norad_cat_id": 44804,
        "meta_element_set_no": 999,
        "meta_rev_at_epoch": 33730,
        "meta_bstar": 0.00017228,
        "meta_mean_motion_dot": 3.572e-05,
        "meta_mean_motion_ddot": 0,
        "tle_line1": "1 44804U 19081A   25360.85730328  .00003572  00000+0  17228-3 0  9990",
        "tle_line2": "2 44804  97.4558  60.2598 0013550  38.3831 321.8365 15.19268860337300"
      },
      "geometry": {
        "type": "Point",
        "coordinates": [
          -135.9326218547995,
          -65.24169161154623
        ]
      }
    },
    {
      "type": "Feature",
      "properties": {
        "norad_id": 44819,
        "name": "GAOFEN-12 01",
        "group": "resource",
        "lat": 28.112118653840543,
        "lon": -168.7256180188939,
        "alt_km": 624.4666887366275,
        "timestamp": "2025-12-27T03:58:43.835787+00:00",
        "meta_object_name": "GAOFEN-12 01",
        "meta_object_id": "2019-082A",
        "meta_epoch": "2025-12-26T20:48:33.587424",
        "meta_mean_motion": 14.80673524,
        "meta_eccentricity": 0.0002342,
        "meta_inclination": 97.8125,
        "meta_ra_of_asc_node": 6.7772,
        "meta_arg_of_pericenter": 173.2474,
        "meta_mean_anomaly": 186.8771,
        "meta_ephemeris_type": 0,
        "meta_classification_type": "U",
        "meta_norad_cat_id": 44819,
        "meta_element_set_no": 999,
        "meta_rev_at_epoch": 32859,
        "meta_bstar": 7.7611e-05,
        "meta_mean_motion_dot": 5.46e-06,
        "meta_mean_motion_ddot": 0,
        "tle_line1": "1 44819U 19082A   25360.86705541  .00000546  00000+0  77611-4 0  9998",
        "tle_line2": "2 44819  97.8125   6.7772 0002342 173.2474 186.8771 14.80673524328593"
      },
      "geometry": {
        "type": "Point",
        "coordinates": [
          -168.7256180188939,
          28.112118653840543
        ]
      }
    },
    {
      "type": "Feature",
      "properties": {
        "norad_id": 44873,
        "name": "CSG-1",
        "group": "resource",
        "lat": -20.137856556786744,
        "lon": -174.81608908618838,
        "alt_km": 627.9759811600825,
        "timestamp": "2025-12-27T03:58:43.835797+00:00",
        "meta_object_name": "CSG-1",
        "meta_object_id": "2019-092A",
        "meta_epoch": "2025-12-26T19:58:09.048288",
        "meta_mean_motion": 14.82163373,
        "meta_eccentricity": 0.0001447,
        "meta_inclination": 97.8805,
        "meta_ra_of_asc_node": 181.944,
        "meta_arg_of_pericenter": 84.8551,
        "meta_mean_anomaly": 275.2827,
        "meta_ephemeris_type": 0,
        "meta_classification_type": "U",
        "meta_norad_cat_id": 44873,
        "meta_element_set_no": 999,
        "meta_rev_at_epoch": 32594,
        "meta_bstar": 9.1746e-05,
        "meta_mean_motion_dot": 6.78e-06,
        "meta_mean_motion_ddot": 0,
        "tle_line1": "1 44873U 19092A   25360.83204917  .00000678  00000+0  91746-4 0  9998",
        "tle_line2": "2 44873  97.8805 181.9440 0001447  84.8551 275.2827 14.82163373325943"
      },
      "geometry": {
        "type": "Point",
        "coordinates": [
          -174.81608908618838,
          -20.137856556786744
        ]
      }
    }
  ]
}